{"fetched_at":"2026-03-29T02:12:04Z","count":15717,"tles":[{"name":"ANGOSAT 2","line1":"1 54033U 22131A   26085.76666830  .00000118  00000+0  00000+0 0  9995","line2":"2 54033   0.0180 177.0476 0000266 284.3154  21.8233  1.00269817 12656","category":"Other"}]}